start=new Date('2023-06-03T00:00:00.000Z').valueOf();
sats=[{"ARG_OF_PERICENTER":"103.1584","TLE_LINE2":"2 53208  97.6560 215.1995 0001735 103.1584 256.9833 15.01257131 47668","APOAPSIS":"564.225","SEMIMAJOR_AXIS":"6941.156","CENTER_NAME":"EARTH","DECAY_DATE":null,"REV_AT_EPOCH":"4766","RCS_SIZE":"LARGE","OBJECT_ID":"2022-084V","SITE":"AFWTR","MEAN_ELEMENT_THEORY":"SGP4","RA_OF_ASC_NODE":"215.1995","NORAD_CAT_ID":"53208","COUNTRY_CODE":"US","ELEMENT_SET_NO":"999","OBJECT_TYPE":"PAYLOAD","MEAN_ANOMALY":"256.9833","MEAN_MOTION_DDOT":"0.0000000000000","ECCENTRICITY":"0.00017350","TLE_LINE1":"1 53208U 22084V   23153.91083155  .00000246  00000-0  23769-4 0  9993","FILE":"3923570","GP_ID":"233072477","PERIOD":"95.920","EPOCH":"2023-06-02T21:51:35.845920","INCLINATION":"97.6560","LAUNCH_DATE":"2022-07-22","REF_FRAME":"TEME","OBJECT_NAME":"STARLINK-4425","MEAN_MOTION_DOT":"0.00000246","EPHEMERIS_TYPE":"0","TIME_SYSTEM":"UTC","MEAN_MOTION":"15.01257131","BSTAR":"0.00002376900000","CLASSIFICATION_TYPE":"U","PERIAPSIS":"561.816"},{"TLE_LINE1":"1 53209U 22084W   23153.90181678  .00000264  00000-0  25163-4 0  9992","ECCENTRICITY":"0.00019820","FILE":"3923570","GP_ID":"233072728","INCLINATION":"97.6540","LAUNCH_DATE":"2022-07-22","EPOCH":"2023-06-02T21:38:36.969792","PERIOD":"95.920","MEAN_MOTION":"15.01257963","EPHEMERIS_TYPE":"0","OBJECT_NAME":"STARLINK-4423","REF_FRAME":"TEME","MEAN_MOTION_DOT":"0.00000264","TIME_SYSTEM":"UTC","PERIAPSIS":"561.642","BSTAR":"0.00002516300000","CLASSIFICATION_TYPE":"U","APOAPSIS":"564.394","TLE_LINE2":"2 53209  97.6540 215.1865 0001982 100.6791 259.4657 15.01257963 47664","ARG_OF_PERICENTER":"100.6791","RCS_SIZE":"LARGE","CENTER_NAME":"EARTH","DECAY_DATE":null,"SEMIMAJOR_AXIS":"6941.153","REV_AT_EPOCH":"4766","NORAD_CAT_ID":"53209","RA_OF_ASC_NODE":"215.1865","COUNTRY_CODE":"US","SITE":"AFWTR","OBJECT_ID":"2022-084W","MEAN_ELEMENT_THEORY":"SGP4","MEAN_ANOMALY":"259.4657","MEAN_MOTION_DDOT":"0.0000000000000","OBJECT_TYPE":"PAYLOAD","ELEMENT_SET_NO":"999"},{"LAUNCH_DATE":"2022-07-22","INCLINATION":"97.6560","PERIOD":"95.920","EPOCH":"2023-06-02T21:46:15.821184","FILE":"3923570","GP_ID":"233072976","ECCENTRICITY":"0.00020620","TLE_LINE1":"1 53210U 22084X   23153.90712756  .00000867  00000-0  72064-4 0  9992","PERIAPSIS":"561.594","CLASSIFICATION_TYPE":"U","BSTAR":"0.00007206400000","MEAN_MOTION":"15.01255569","TIME_SYSTEM":"UTC","REF_FRAME":"TEME","OBJECT_NAME":"STARLINK-4427","MEAN_MOTION_DOT":"0.00000867","EPHEMERIS_TYPE":"0","RCS_SIZE":"LARGE","REV_AT_EPOCH":"4820","SEMIMAJOR_AXIS":"6941.161","DECAY_DATE":null,"CENTER_NAME":"EARTH","TLE_LINE2":"2 53210  97.6560 215.1968 0002062  92.6067 267.5394 15.01255569 48207","APOAPSIS":"564.457","ARG_OF_PERICENTER":"92.6067","MEAN_MOTION_DDOT":"0.0000000000000","MEAN_ANOMALY":"267.5394","ELEMENT_SET_NO":"999","OBJECT_TYPE":"PAYLOAD","COUNTRY_CODE":"US","RA_OF_ASC_NODE":"215.1968","NORAD_CAT_ID":"53210","MEAN_ELEMENT_THEORY":"SGP4","OBJECT_ID":"2022-084X","SITE":"AFWTR"},{"TLE_LINE2":"2 53211  97.6537 215.1777 0001585 102.6670 257.4732 15.01256010 48184","APOAPSIS":"564.124","ARG_OF_PERICENTER":"102.6670","RCS_SIZE":"LARGE","SEMIMAJOR_AXIS":"6941.159","DECAY_DATE":null,"CENTER_NAME":"EARTH","REV_AT_EPOCH":"4818","RA_OF_ASC_NODE":"215.1777","NORAD_CAT_ID":"53211","COUNTRY_CODE":"US","OBJECT_ID":"2022-084Y","SITE":"AFWTR","MEAN_ELEMENT_THEORY":"SGP4","MEAN_ANOMALY":"257.4732","MEAN_MOTION_DDOT":"0.0000000000000","ELEMENT_SET_NO":"999","OBJECT_TYPE":"PAYLOAD","ECCENTRICITY":"0.00015850","TLE_LINE1":"1 53211U 22084Y   23153.89626130 -.00000030  00000-0  22931-5 0  9993","FILE":"3923570","GP_ID":"233071727","INCLINATION":"97.6537","LAUNCH_DATE":"2022-07-22","PERIOD":"95.920","EPOCH":"2023-06-02T21:30:36.976320","MEAN_MOTION":"15.01256010","REF_FRAME":"TEME","MEAN_MOTION_DOT":"-0.00000030","OBJECT_NAME":"STARLINK-4419","EPHEMERIS_TYPE":"0","TIME_SYSTEM":"UTC","PERIAPSIS":"561.924","BSTAR":"0.00000229310000","CLASSIFICATION_TYPE":"U"},{"MEAN_ANOMALY":"267.3669","MEAN_MOTION_DDOT":"0.0000000000000","ELEMENT_SET_NO":"999","OBJECT_TYPE":"PAYLOAD","RA_OF_ASC_NODE":"215.1870","NORAD_CAT_ID":"53212","COUNTRY_CODE":"US","OBJECT_ID":"2022-084Z","SITE":"AFWTR","MEAN_ELEMENT_THEORY":"SGP4","RCS_SIZE":"LARGE","SEMIMAJOR_AXIS":"6941.154","DECAY_DATE":null,"CENTER_NAME":"EARTH","REV_AT_EPOCH":"4766","TLE_LINE2":"2 53212  97.6543 215.1870 0001867  92.7769 267.3669 15.01257652 47661","APOAPSIS":"564.315","ARG_OF_PERICENTER":"92.7769","PERIAPSIS":"561.723","BSTAR":"0.00003787500000","CLASSIFICATION_TYPE":"U","MEAN_MOTION":"15.01257652","REF_FRAME":"TEME","OBJECT_NAME":"STARLINK-4416","MEAN_MOTION_DOT":"0.00000427","EPHEMERIS_TYPE":"0","TIME_SYSTEM":"UTC","INCLINATION":"97.6543","LAUNCH_DATE":"2022-07-22","PERIOD":"95.920","EPOCH":"2023-06-02T21:38:15.959904","ECCENTRICITY":"0.00018670","TLE_LINE1":"1 53212U 22084Z   23153.90157361  .00000427  00000-0  37875-4 0  9992","GP_ID":"233071977","FILE":"3923570"},{"SITE":"AFWTR","OBJECT_ID":"2022-084AA","MEAN_ELEMENT_THEORY":"SGP4","NORAD_CAT_ID":"53213","RA_OF_ASC_NODE":"215.1661","COUNTRY_CODE":"US","OBJECT_TYPE":"PAYLOAD","ELEMENT_SET_NO":"999","MEAN_ANOMALY":"245.7456","MEAN_MOTION_DDOT":"0.0000000000000","ARG_OF_PERICENTER":"114.3845","APOAPSIS":"563.537","TLE_LINE2":"2 53213  97.6542 215.1661 0000733 114.3845 245.7456 15.01254716 48186","CENTER_NAME":"EARTH","DECAY_DATE":null,"SEMIMAJOR_AXIS":"6941.163","REV_AT_EPOCH":"4818","RCS_SIZE":"LARGE","EPHEMERIS_TYPE":"0","OBJECT_NAME":"STARLINK-4414","MEAN_MOTION_DOT":"0.00000169","REF_FRAME":"TEME","TIME_SYSTEM":"UTC","MEAN_MOTION":"15.01254716","BSTAR":"0.00001777100000","CLASSIFICATION_TYPE":"U","PERIAPSIS":"562.519","TLE_LINE1":"1 53213U 22084AA  23153.89231357  .00000169  00000-0  17771-4 0  9995","ECCENTRICITY":"0.00007330","FILE":"3923570","GP_ID":"233073229","EPOCH":"2023-06-02T21:24:55.892448","PERIOD":"95.920","INCLINATION":"97.6542","LAUNCH_DATE":"2022-07-22"},{"ELEMENT_SET_NO":"999","OBJECT_TYPE":"PAYLOAD","MEAN_ANOMALY":"256.7990","MEAN_MOTION_DDOT":"0.0000000000000","OBJECT_ID":"2022-084AB","SITE":"AFWTR","MEAN_ELEMENT_THEORY":"SGP4","RA_OF_ASC_NODE":"215.1801","NORAD_CAT_ID":"53214","COUNTRY_CODE":"US","SEMIMAJOR_AXIS":"6941.161","CENTER_NAME":"EARTH","DECAY_DATE":null,"REV_AT_EPOCH":"4766","RCS_SIZE":"LARGE","ARG_OF_PERICENTER":"103.3452","TLE_LINE2":"2 53214  97.6532 215.1801 0001947 103.3452 256.7990 15.01255491 47660","APOAPSIS":"564.377","BSTAR":"0.00000969740000","CLASSIFICATION_TYPE":"U","PERIAPSIS":"561.674","OBJECT_NAME":"STARLINK-4353","REF_FRAME":"TEME","MEAN_MOTION_DOT":"0.00000066","EPHEMERIS_TYPE":"0","TIME_SYSTEM":"UTC","MEAN_MOTION":"15.01255491","PERIOD":"95.920","EPOCH":"2023-06-02T21:35:35.966112","INCLINATION":"97.6532","LAUNCH_DATE":"2022-07-22","ECCENTRICITY":"0.00019470","TLE_LINE1":"1 53214U 22084AB  23153.89972183  .00000066  00000-0  96974-5 0  9994","GP_ID":"233073477","FILE":"3923570"},{"GP_ID":"233072228","FILE":"3923570","TLE_LINE1":"1 53215U 22084AC  23153.89046082 -.00000146  00000-0 -67471-5 0  9996","ECCENTRICITY":"0.00009510","LAUNCH_DATE":"2022-07-22","INCLINATION":"97.6542","EPOCH":"2023-06-02T21:22:15.814848","PERIOD":"95.920","MEAN_MOTION":"15.01256160","TIME_SYSTEM":"UTC","EPHEMERIS_TYPE":"0","REF_FRAME":"TEME","MEAN_MOTION_DOT":"-0.00000146","OBJECT_NAME":"STARLINK-4335","PERIAPSIS":"562.364","CLASSIFICATION_TYPE":"U","BSTAR":"-0.00000674710000","APOAPSIS":"563.684","TLE_LINE2":"2 53215  97.6542 215.1643 0000951 117.5929 242.5392 15.01256160 48187","ARG_OF_PERICENTER":"117.5929","RCS_SIZE":"LARGE","REV_AT_EPOCH":"4818","DECAY_DATE":null,"CENTER_NAME":"EARTH","SEMIMAJOR_AXIS":"6941.159","COUNTRY_CODE":"US","NORAD_CAT_ID":"53215","RA_OF_ASC_NODE":"215.1643","MEAN_ELEMENT_THEORY":"SGP4","SITE":"AFWTR","OBJECT_ID":"2022-084AC","MEAN_MOTION_DDOT":"0.0000000000000","MEAN_ANOMALY":"242.5392","OBJECT_TYPE":"PAYLOAD","ELEMENT_SET_NO":"999"},{"APOAPSIS":"564.168","TLE_LINE2":"2 53216  97.6542 215.1723 0001665 100.1853 259.9559 15.01259694 47668","ARG_OF_PERICENTER":"100.1853","RCS_SIZE":"LARGE","DECAY_DATE":null,"CENTER_NAME":"EARTH","SEMIMAJOR_AXIS":"6941.148","REV_AT_EPOCH":"4766","NORAD_CAT_ID":"53216","RA_OF_ASC_NODE":"215.1723","COUNTRY_CODE":"US","SITE":"AFWTR","OBJECT_ID":"2022-084AD","MEAN_ELEMENT_THEORY":"SGP4","MEAN_ANOMALY":"259.9559","MEAN_MOTION_DDOT":"0.0000000000000","OBJECT_TYPE":"PAYLOAD","ELEMENT_SET_NO":"999","TLE_LINE1":"1 53216U 22084AD  23153.89601652  .00000632  00000-0  53762-4 0  9992","ECCENTRICITY":"0.00016650","FILE":"3923570","GP_ID":"233072478","INCLINATION":"97.6542","LAUNCH_DATE":"2022-07-22","EPOCH":"2023-06-02T21:30:15.827328","PERIOD":"95.919","MEAN_MOTION":"15.01259694","EPHEMERIS_TYPE":"0","MEAN_MOTION_DOT":"0.00000632","REF_FRAME":"TEME","OBJECT_NAME":"STARLINK-4376","TIME_SYSTEM":"UTC","PERIAPSIS":"561.857","BSTAR":"0.00005376200000","CLASSIFICATION_TYPE":"U"},{"ARG_OF_PERICENTER":"105.7257","APOAPSIS":"560.896","TLE_LINE2":"2 53217  97.6538 215.1688 0000521 105.7257 254.4025 15.02064197 47664","REV_AT_EPOCH":"4766","DECAY_DATE":null,"CENTER_NAME":"EARTH","SEMIMAJOR_AXIS":"6938.669","RCS_SIZE":"LARGE","MEAN_ELEMENT_THEORY":"SGP4","SITE":"AFWTR","OBJECT_ID":"2022-084AE","COUNTRY_CODE":"US","NORAD_CAT_ID":"53217","RA_OF_ASC_NODE":"215.1688","OBJECT_TYPE":"PAYLOAD","ELEMENT_SET_NO":"999","MEAN_MOTION_DDOT":"0.0000000000000","MEAN_ANOMALY":"254.4025","GP_ID":"233072729","FILE":"3923570","TLE_LINE1":"1 53217U 22084AE  23153.88059646 -.00000313  00000-0 -19318-4 0  9999","ECCENTRICITY":"0.00005210","EPOCH":"2023-06-02T21:08:03.534144","PERIOD":"95.868","LAUNCH_DATE":"2022-07-22","INCLINATION":"97.6538","TIME_SYSTEM":"UTC","EPHEMERIS_TYPE":"0","OBJECT_NAME":"STARLINK-4379","REF_FRAME":"TEME","MEAN_MOTION_DOT":"-0.00000313","MEAN_MOTION":"15.02064197","CLASSIFICATION_TYPE":"U","BSTAR":"-0.00001931800000","PERIAPSIS":"560.173"}];
